{
"type": "FeatureCollection",
"name": "airplanes",
"crs": { "type": "name", "properties": { "name": "urn:ogc:def:crs:OGC:1.3:CRS84" } },
"features": [
{"type":"Feature","properties":{"time":"2026-09-09T14:01:49.657Z","hex":"AB9B9D","rssi":-6.5,"altitude":16725,"on_ground":false,"typecode":11,"gs":339,"track":144.6,"vr":-1536,"squawk":"3275"},"geometry":{"type":"Point","coordinates":[-105.068726,40.339188]}},
{"type":"Feature","properties":{"time":"2026-09-09T14:01:50.749Z","hex":"AB9B9D","rssi":-5.2,"altitude":16700,"on_ground":false,"typecode":11,"gs":339,"track":144.6,"vr":-1536,"squawk":"3275"},"geometry":{"type":"Point","coordinates":[-105.068726,40.339188]}},
{"type":"Feature","properties":{"time":"2026-09-09T14:01:51.842Z","hex":"AB9B9D","rssi":-3.6,"altitude":16675,"on_ground":false,"typecode":11,"gs":339,"track":144.6,"vr":-1536,"squawk":"3275"},"geometry":{"type":"Point","coordinates":[-105.068726,40.339188]}},
{"type":"Feature","properties":{"time":"2026-09-09T14:01:52.934Z","hex":"AB9B9D","rssi":-2.3,"altitude":16650,"on_ground":false,"typecode":11,"gs":339,"track":144.6,"vr":-1472,"squawk":"3275"},"geometry":{"type":"Point","coordinates":[-105.066223,40.336533]}},
{"type":"Feature","properties":{"time":"2026-09-09T14:01:53.480Z","hex":"A1ECFF","rssi":-12.9,"altitude":25825,"on_ground":false,"typecode":11,"gs":353,"track":331.6,"vr":1536},"geometry":{"type":"Point","coordinates":[-104.869933,40.810531]}},
{"type":"Feature","properties":{"time":"2026-09-09T14:01:54.026Z","hex":"AB9B9D","rssi":-2.2,"altitude":16625,"on_ground":false,"typecode":11,"gs":339,"track":144.5,"vr":-1472,"squawk":"3275"},"geometry":{"type":"Point","coordinates":[-105.066223,40.336533]}},
{"type":"Feature","properties":{"time":"2026-09-09T14:01:54.026Z","hex":"A1ECFF","rssi":-14.9,"altitude":25850,"on_ground":false,"typecode":11,"gs":353,"track":331.6,"vr":1536},"geometry":{"type":"Point","coordinates":[-104.871887,40.813248]}},
{"type":"Feature","properties":{"time":"2026-09-09T14:01:54.572Z","hex":"AB9B9D","rssi":-3.5,"altitude":16600,"on_ground":false,"typecode":11,"gs":339,"track":144.5,"vr":-1472,"squawk":"3275"},"geometry":{"type":"Point","coordinates":[-105.063843,40.333969]}},
{"type":"Feature","properties":{"time":"2026-09-09T14:01:55.664Z","hex":"A1ECFF","rssi":-10.9,"altitude":25875,"on_ground":false,"typecode":11,"gs":352,"track":331.2,"vr":1472,"squawk":"5171"},"geometry":{"type":"Point","coordinates":[-104.871887,40.813248]}},
{"type":"Feature","properties":{"time":"2026-09-09T14:01:55.664Z","hex":"AB9B9D","rssi":-7.9,"altitude":16575,"on_ground":false,"typecode":11,"gs":339,"track":144.5,"vr":-1472,"squawk":"3275","callsign":"UAL2220"},"geometry":{"type":"Point","coordinates":[-105.063843,40.333969]}},
{"type":"Feature","properties":{"time":"2026-09-09T14:01:56.211Z","hex":"AA7426","rssi":-12.3,"altitude":18550,"on_ground":false,"typecode":11},"geometry":{"type":"Point","coordinates":[-105.392408,40.348826]}}
]
}
